{
  "type": "FeatureCollection",
  "features": [
    {
      "type": "Feature",
      "properties": {
        "norad_id": 43823,
        "name": "GEO-KOMPSAT-2A",
        "group": "weather",
        "lat": -0.0411167107332989,
        "lon": 8.736094483788168,
        "alt_km": 35787.26919773557,
        "timestamp": "2025-12-08T10:52:02.591443+00:00",
        "meta_object_name": "GEO-KOMPSAT-2A",
        "meta_object_id": "2018-100A",
        "meta_epoch": "2025-12-07T22:48:19.476288",
        "meta_mean_motion": 1.0027108,
        "meta_eccentricity": 2.209e-05,
        "meta_inclination": 0.0574,
        "meta_ra_of_asc_node": 115.7765,
        "meta_arg_of_pericenter": 83.436,
        "meta_mean_anomaly": 348.1045,
        "meta_ephemeris_type": 0,
        "meta_classification_type": "U",
        "meta_norad_cat_id": 43823,
        "meta_element_set_no": 999,
        "meta_rev_at_epoch": 2571,
        "meta_bstar": 0,
        "meta_mean_motion_dot": -3.41e-06,
        "meta_mean_motion_ddot": 0,
        "tle_line1": "1 43823U 18100A   25341.95022542 -.00000341  00000+0  00000+0 0  9991",
        "tle_line2": "2 43823   0.0574 115.7765 0000220  83.4360 348.1045  1.00271080 25717"
      },
      "geometry": {
        "type": "Point",
        "coordinates": [
          8.736094483788168,
          -0.0411167107332989
        ]
      }
    },
    {
      "type": "Feature",
      "properties": {
        "norad_id": 44387,
        "name": "METEOR-M2 2",
        "group": "weather",
        "lat": 6.160006814439211,
        "lon": -38.83944561507601,
        "alt_km": 813.6593828107643,
        "timestamp": "2025-12-08T10:52:02.591454+00:00",
        "meta_object_name": "METEOR-M2 2",
        "meta_object_id": "2019-038A",
        "meta_epoch": "2025-12-07T23:02:10.260672",
        "meta_mean_motion": 14.24288365,
        "meta_eccentricity": 0.00011222,
        "meta_inclination": 98.8968,
        "meta_ra_of_asc_node": 321.6303,
        "meta_arg_of_pericenter": 157.6717,
        "meta_mean_anomaly": 202.451,
        "meta_ephemeris_type": 0,
        "meta_classification_type": "U",
        "meta_norad_cat_id": 44387,
        "meta_element_set_no": 999,
        "meta_rev_at_epoch": 33407,
        "meta_bstar": 0.00015019058,
        "meta_mean_motion_dot": 3.01e-06,
        "meta_mean_motion_ddot": 0,
        "tle_line1": "1 44387U 19038A   25341.95984098  .00000301  00000+0  15019-3 0  9996",
        "tle_line2": "2 44387  98.8968 321.6303 0001122 157.6717 202.4510 14.24288365334078"
      },
      "geometry": {
        "type": "Point",
        "coordinates": [
          -38.83944561507601,
          6.160006814439211
        ]
      }
    },
    {
      "type": "Feature",
      "properties": {
        "norad_id": 47719,
        "name": "ARKTIKA-M 1",
        "group": "weather",
        "lat": 53.38924516394944,
        "lon": -138.24117767744033,
        "alt_km": 29400.840253024613,
        "timestamp": "2025-12-08T10:52:02.591468+00:00",
        "meta_object_name": "ARKTIKA-M 1",
        "meta_object_id": "2021-016A",
        "meta_epoch": "2025-12-01T02:41:41.634816",
        "meta_mean_motion": 2.00613156,
        "meta_eccentricity": 0.71974708,
        "meta_inclination": 63.1756,
        "meta_ra_of_asc_node": 85.6045,
        "meta_arg_of_pericenter": 269.084,
        "meta_mean_anomaly": 15.7076,
        "meta_ephemeris_type": 0,
        "meta_classification_type": "U",
        "meta_norad_cat_id": 47719,
        "meta_element_set_no": 999,
        "meta_rev_at_epoch": 3481,
        "meta_bstar": 0,
        "meta_mean_motion_dot": -1.2e-07,
        "meta_mean_motion_ddot": 0,
        "tle_line1": "1 47719U 21016A   25335.11228744 -.00000012  00000+0  00000+0 0  9997",
        "tle_line2": "2 47719  63.1756  85.6045 7197470 269.0840  15.7076  2.00613156 34816"
      },
      "geometry": {
        "type": "Point",
        "coordinates": [
          -138.24117767744033,
          53.38924516394944
        ]
      }
    },
    {
      "type": "Feature",
      "properties": {
        "norad_id": 49008,
        "name": "FENGYUN 3E",
        "group": "weather",
        "lat": 33.15364407339788,
        "lon": -22.747616445807157,
        "alt_km": 823.7411204187101,
        "timestamp": "2025-12-08T10:52:02.591483+00:00",
        "meta_object_name": "FENGYUN 3E",
        "meta_object_id": "2021-062A",
        "meta_epoch": "2025-12-07T22:52:15.680064",
        "meta_mean_motion": 14.19879004,
        "meta_eccentricity": 5.937e-05,
        "meta_inclination": 98.7476,
        "meta_ra_of_asc_node": 342.5309,
        "meta_arg_of_pericenter": 295.6624,
        "meta_mean_anomaly": 64.4491,
        "meta_ephemeris_type": 0,
        "meta_classification_type": "U",
        "meta_norad_cat_id": 49008,
        "meta_element_set_no": 999,
        "meta_rev_at_epoch": 22944,
        "meta_bstar": 4.5862328e-05,
        "meta_mean_motion_dot": 5.3e-07,
        "meta_mean_motion_ddot": 0,
        "tle_line1": "1 49008U 21062A   25341.95295926  .00000053  00000+0  45862-4 0  9990",
        "tle_line2": "2 49008  98.7476 342.5309 0000593 295.6624  64.4491 14.19879004229443"
      },
      "geometry": {
        "type": "Point",
        "coordinates": [
          -22.747616445807157,
          33.15364407339788
        ]
      }
    },
    {
      "type": "Feature",
      "properties": {
        "norad_id": 51850,
        "name": "GOES 18",
        "group": "weather",
        "lat": 0.0008245730942988657,
        "lon": 103.47477479200464,
        "alt_km": 35789.41004020054,
        "timestamp": "2025-12-08T10:52:02.591496+00:00",
        "meta_object_name": "GOES 18",
        "meta_object_id": "2022-021A",
        "meta_epoch": "2025-12-07T18:07:11.700192",
        "meta_mean_motion": 1.00272516,
        "meta_eccentricity": 8.8e-05,
        "meta_inclination": 0.0087,
        "meta_ra_of_asc_node": 95.72,
        "meta_arg_of_pericenter": 202.0589,
        "meta_mean_anomaly": 273.7963,
        "meta_ephemeris_type": 0,
        "meta_classification_type": "U",
        "meta_norad_cat_id": 51850,
        "meta_element_set_no": 999,
        "meta_rev_at_epoch": 467,
        "meta_bstar": 0,
        "meta_mean_motion_dot": 1e-06,
        "meta_mean_motion_ddot": 0,
        "tle_line1": "1 51850U 22021A   25341.75499653  .00000100  00000+0  00000+0 0  9998",
        "tle_line2": "2 51850   0.0087  95.7200 0000880 202.0589 273.7963  1.00272516  4679"
      },
      "geometry": {
        "type": "Point",
        "coordinates": [
          103.47477479200464,
          0.0008245730942988657
        ]
      }
    },
    {
      "type": "Feature",
      "properties": {
        "norad_id": 54234,
        "name": "NOAA 21 (JPSS-2)",
        "group": "weather",
        "lat": 44.82409461350627,
        "lon": -89.98573235856122,
        "alt_km": 821.3636100923377,
        "timestamp": "2025-12-08T10:52:02.591507+00:00",
        "meta_object_name": "NOAA 21 (JPSS-2)",
        "meta_object_id": "2022-150A",
        "meta_epoch": "2025-12-07T22:48:44.070048",
        "meta_mean_motion": 14.19522055,
        "meta_eccentricity": 0.00023988,
        "meta_inclination": 98.7456,
        "meta_ra_of_asc_node": 278.3187,
        "meta_arg_of_pericenter": 47.1667,
        "meta_mean_anomaly": 312.971,
        "meta_ephemeris_type": 0,
        "meta_classification_type": "U",
        "meta_norad_cat_id": 54234,
        "meta_element_set_no": 999,
        "meta_rev_at_epoch": 15941,
        "meta_bstar": 0.00010411981,
        "meta_mean_motion_dot": 1.76e-06,
        "meta_mean_motion_ddot": 0,
        "tle_line1": "1 54234U 22150A   25341.95051007  .00000176  00000+0  10412-3 0  9994",
        "tle_line2": "2 54234  98.7456 278.3187 0002398  47.1667 312.9710 14.19522055159415"
      },
      "geometry": {
        "type": "Point",
        "coordinates": [
          -89.98573235856122,
          44.82409461350627
        ]
      }
    },
    {
      "type": "Feature",
      "properties": {
        "norad_id": 54743,
        "name": "METEOSAT-12 (MTG-I1)",
        "group": "weather",
        "lat": -0.3774671652753192,
        "lon": -119.77271394535937,
        "alt_km": 35779.08113753243,
        "timestamp": "2025-12-08T10:52:02.591519+00:00",
        "meta_object_name": "METEOSAT-12 (MTG-I1)",
        "meta_object_id": "2022-170C",
        "meta_epoch": "2025-12-07T22:11:37.989600",
        "meta_mean_motion": 1.00274741,
        "meta_eccentricity": 0.00015063,
        "meta_inclination": 0.7247,
        "meta_ra_of_asc_node": 30.8457,
        "meta_arg_of_pericenter": 222.9415,
        "meta_mean_anomaly": 155.8217,
        "meta_ephemeris_type": 0,
        "meta_classification_type": "U",
        "meta_norad_cat_id": 54743,
        "meta_element_set_no": 999,
        "meta_rev_at_epoch": 1106,
        "meta_bstar": 0,
        "meta_mean_motion_dot": -3e-08,
        "meta_mean_motion_ddot": 0,
        "tle_line1": "1 54743U 22170C   25341.92474525 -.00000003  00000+0  00000+0 0  9990",
        "tle_line2": "2 54743   0.7247  30.8457 0001506 222.9415 155.8217  1.00274741 11062"
      },
      "geometry": {
        "type": "Point",
        "coordinates": [
          -119.77271394535937,
          -0.3774671652753192
        ]
      }
    }
  ]
}